GSAT0101 (PRN E11)      
1 37846U 11060A   23270.76013369 -.00000098  00000+0  00000+0 0  9991
2 37846  57.1116   8.6661 0000869  71.1898 288.8381  1.70475738 74185
GSAT0102 (PRN E12)      
1 37847U 11060B   23270.64384733 -.00000097  00000+0  00000+0 0  9994
2 37847  57.1127   8.6689 0001426 314.9014  19.9828  1.70475148 74180
GSAT0103 (PRN E19)      
1 38857U 12055A   23270.79936663  .00000043  00000+0  00000+0 0  9992
2 38857  55.2911 128.8474 0002297 255.3847 104.6998  1.70473609 68079
GSAT0104 (PRN E20)      
1 38858U 12055B   23271.35537408  .00000043  00000+0  00000+0 0  9990
2 38858  55.2915 128.8336 0000773 147.3140 212.8013  1.70473865 68089
GSAT0201 (PRN E18)      
1 40128U 14050A   23269.44176039 -.00000038  00000+0  00000+0 0  9991
2 40128  49.9156 313.6823 1608122 141.2147 231.5219  1.85519146 59868
GSAT0202 (PRN E14)      
1 40129U 14050B   23270.77904778 -.00000048  00000+0  00000+0 0  9990
2 40129  49.9334 312.7008 1606018 142.0763 230.4165  1.85519815 62053
GSAT0203 (PRN E26)      
1 40544U 15017A   23271.71271358 -.00000101  00000+0  00000+0 0  9991
2 40544  56.9065   8.6098 0003237 227.1681 132.8247  1.70476099 52280
GSAT0204 (PRN E22)      
1 40545U 15017B   23269.03348640 -.00000092  00000+0  00000+0 0  9992
2 40545  56.9128   8.6972 0004055 217.4748 142.5152  1.70475528 15285
GSAT0205 (PRN E24)      
1 40889U 15045A   23271.14775515  .00000008  00000+0  00000+0 0  9990
2 40889  55.3544 249.0382 0003864   1.3790 358.5876  1.70473076 50086
GSAT0206 (PRN E30)      
1 40890U 15045B   23271.36843500  .00000006  00000+0  00000+0 0  9994
2 40890  55.3511 249.0277 0002556 333.6776  26.2736  1.70473092 50113
GSAT0209 (PRN E09)      
1 41174U 15079A   23272.12676243  .00000042  00000+0  00000+0 0  9990
2 41174  55.3095 128.5180 0002423 339.6591  20.4412  1.70474008 48442
GSAT0208 (PRN E08)      
1 41175U 15079B   23271.75981886  .00000043  00000+0  00000+0 0  9992
2 41175  55.3078 128.5260 0001937 359.1986   0.9115  1.70473938 48430
GSAT0211 (PRN E02)      
1 41549U 16030A   23270.70754020  .00000011  00000+0  00000+0 0  9992
2 41549  55.4988 249.0288 0004076 316.5881  43.3485  1.70473175 45737
GSAT0210 (PRN E01)      
1 41550U 16030B   23272.17219722  .00000003  00000+0  00000+0 0  9993
2 41550  55.4975 248.9897 0003998 281.1017  78.8132  1.70473371 45739
GSAT0207 (PRN E07)      
1 41859U 16069A   23271.83400839  .00000041  00000+0  00000+0 0  9992
2 41859  54.9725 128.5919 0002212 312.2932  47.7983  1.70473911 42709
GSAT0212 (PRN E03)      
1 41860U 16069B   23271.10205669  .00000042  00000+0  00000+0 0  9999
2 41860  54.9699 128.6089 0001928  16.1443 343.9722  1.70474152 42722
GSAT0213 (PRN E04)      
1 41861U 16069C   23270.88171802  .00000042  00000+0  00000+0 0  9995
2 41861  54.9718 128.6211 0002100 270.8948  89.1910  1.70472850 42589
GSAT0214 (PRN E05)      
1 41862U 16069D   23269.26920957  .00000038  00000+0  00000+0 0  9994
2 41862  54.9693 128.6599 0001218 279.7101  80.3809  1.70472699 42681
GSAT0215 (PRN E21)      
1 43055U 17079A   23272.10397514  .00000003  00000+0  00000+0 0  9998
2 43055  55.4745 248.8159 0003483 275.8054  84.1149  1.70473842 36074
GSAT0216 (PRN E25)      
1 43056U 17079B   23270.63613681  .00000012  00000+0  00000+0 0  9991
2 43056  55.4757 248.8562 0005092 279.6536  80.2578  1.70473970 36065
GSAT0217 (PRN E27)      
1 43057U 17079C   23271.44307626  .00000006  00000+0  00000+0 0  9994
2 43057  55.4732 248.8330 0004531 291.4428  68.4723  1.70473945 36063
GSAT0218 (PRN E31)      
1 43058U 17079D   23271.07654722  .00000008  00000+0  00000+0 0  9998
2 43058  55.4735 248.8407 0005547 275.8680  84.0345  1.70473915 36089
GSAT0221 (PRN E15)      
1 43564U 18060A   23269.21661626 -.00000092  00000+0  00000+0 0  9999
2 43564  57.2875   8.6114 0003248 252.6639 107.3188  1.70476002 32200
GSAT0222 (PRN E33)      
1 43565U 18060B   23270.02131496 -.00000095  00000+0  00000+0 0  9991
2 43565  57.2912   8.5909 0003978 219.4814 140.5078  1.70475747 32268
GSAT0219 (PRN E36)      
1 43566U 18060C   23267.31070046 -.00000085  00000+0  00000+0 0  9992
2 43566  57.2900   8.6662 0002535 256.4137 103.5787  1.70476004 32195
GSAT0220 (PRN E13)      
1 43567U 18060D   23269.87746299 -.00000095  00000+0  00000+0 0  9997
2 43567  57.2899   8.5973 0002788 251.4482 108.5396  1.70475634 32228
GSAT0223 (PRN E34)      
1 49809U 21116A   23267.41475998 -.00000085  00000+0  00000+0 0  9990
2 49809  57.2810   8.5598 0003498 188.0129 190.8503  1.70475882 11193
GSAT0224 (PRN E10)      
1 49810U 21116B   23271.98968628 -.00000101  00000+0  00000+0 0  9995
2 49810  57.2823   8.4340 0002908 184.8192 234.2616  1.70475851 11286
